FLOCK 4G-29             
1 62642U 25009AK  26068.81464037  .00011147  00000+0  41831-3 0  9994
2 62642  97.4058 151.3683 0001366 288.0502  72.0588 15.27382318 63721
STARLINK-35343          
1 67334U 26003A   26068.49539460  .00033727  00000+0  12290-2 0  9993
2 67334  43.0002 228.2092 0001671 271.3939  88.6721 15.27593914  8790
